[{"CCSDS_OMM_VERS":"3.0","COMMENT":"GENERATED VIA SPACE-TRACK.ORG API","CREATION_DATE":"2026-05-16T17:43:08","ORIGINATOR":"18 SPCS","OBJECT_NAME":"THOR ABLESTAR DEB","OBJECT_ID":"1961-015HD","CENTER_NAME":"EARTH","REF_FRAME":"TEME","TIME_SYSTEM":"UTC","MEAN_ELEMENT_THEORY":"SGP4","EPOCH":"2026-05-16T09:49:30.088128","MEAN_MOTION":"14.18590734","ECCENTRICITY":"0.00690756","INCLINATION":"66.7039","RA_OF_ASC_NODE":"188.1613","ARG_OF_PERICENTER":"13.3906","MEAN_ANOMALY":"346.8998","EPHEMERIS_TYPE":"0","CLASSIFICATION_TYPE":"U","NORAD_CAT_ID":"652","ELEMENT_SET_NO":"999","REV_AT_EPOCH":"28935","BSTAR":"0.00044169662000","MEAN_MOTION_DOT":"0.00000855","MEAN_MOTION_DDOT":"0.0000000000000","SEMIMAJOR_AXIS":"7208.260","PERIOD":"101.509","APOAPSIS":"879.916","PERIAPSIS":"780.333","OBJECT_TYPE":"DEBRIS","RCS_SIZE":"SMALL","COUNTRY_CODE":"US","LAUNCH_DATE":"1961-06-29","SITE":"AFETR","DECAY_DATE":null,"FILE":"5196581","GP_ID":"323457713","TLE_LINE0":"0 THOR ABLESTAR DEB","TLE_LINE1":"1 00652U 61015HD  26136.40937602  .00000855  00000-0  44170-3 0  9992","TLE_LINE2":"2 00652  66.7039 188.1613 0069076  13.3906 346.8998 14.18590734289350"},{"CCSDS_OMM_VERS":"3.0","COMMENT":"GENERATED VIA SPACE-TRACK.ORG API","CREATION_DATE":"2026-05-16T10:38:26","ORIGINATOR":"18 SPCS","OBJECT_NAME":"THOR ABLESTAR DEB","OBJECT_ID":"1961-015HE","CENTER_NAME":"EARTH","REF_FRAME":"TEME","TIME_SYSTEM":"UTC","MEAN_ELEMENT_THEORY":"SGP4","EPOCH":"2026-05-16T06:46:23.234304","MEAN_MOTION":"13.70375647","ECCENTRICITY":"0.01562675","INCLINATION":"67.4495","RA_OF_ASC_NODE":"242.2110","ARG_OF_PERICENTER":"1.5472","MEAN_ANOMALY":"27.2704","EPHEMERIS_TYPE":"0","CLASSIFICATION_TYPE":"U","NORAD_CAT_ID":"653","ELEMENT_SET_NO":"999","REV_AT_EPOCH":"21351","BSTAR":"0.00024829115000","MEAN_MOTION_DOT":"0.00000171","MEAN_MOTION_DDOT":"0.0000000000000","SEMIMAJOR_AXIS":"7376.360","PERIOD":"105.081","APOAPSIS":"1113.493","PERIAPSIS":"882.956","OBJECT_TYPE":"DEBRIS","RCS_SIZE":"SMALL","COUNTRY_CODE":"US","LAUNCH_DATE":"1961-06-29","SITE":"AFETR","DECAY_DATE":null,"FILE":"5196540","GP_ID":"323424013","TLE_LINE0":"0 THOR ABLESTAR DEB","TLE_LINE1":"1 00653U 61015HE  26136.28221336  .00000171  00000-0  24829-3 0  9999","TLE_LINE2":"2 00653  67.4495 242.2110 0156268   1.5472  27.2704 13.70375647213517"},{"CCSDS_OMM_VERS":"3.0","COMMENT":"GENERATED VIA SPACE-TRACK.ORG API","CREATION_DATE":"2026-05-16T10:38:26","ORIGINATOR":"18 SPCS","OBJECT_NAME":"THOR ABLESTAR DEB","OBJECT_ID":"1961-015HG","CENTER_NAME":"EARTH","REF_FRAME":"TEME","TIME_SYSTEM":"UTC","MEAN_ELEMENT_THEORY":"SGP4","EPOCH":"2026-05-15T12:20:53.697696","MEAN_MOTION":"13.09547359","ECCENTRICITY":"0.03671949","INCLINATION":"67.2569","RA_OF_ASC_NODE":"309.2099","ARG_OF_PERICENTER":"342.4649","MEAN_ANOMALY":"47.0394","EPHEMERIS_TYPE":"0","CLASSIFICATION_TYPE":"U","NORAD_CAT_ID":"655","ELEMENT_SET_NO":"999","REV_AT_EPOCH":"8265","BSTAR":"-0.00041340930000","MEAN_MOTION_DOT":"-0.00000258","MEAN_MOTION_DDOT":"0.0000000000000","SEMIMAJOR_AXIS":"7603.047","PERIOD":"109.962","APOAPSIS":"1504.092","PERIAPSIS":"945.732","OBJECT_TYPE":"DEBRIS","RCS_SIZE":"SMALL","COUNTRY_CODE":"US","LAUNCH_DATE":"1961-06-29","SITE":"AFETR","DECAY_DATE":null,"FILE":"5196540","GP_ID":"323423514","TLE_LINE0":"0 THOR ABLESTAR DEB","TLE_LINE1":"1 00655U 61015HG  26135.51451039 -.00000258  00000-0 -41341-3 0  9997","TLE_LINE2":"2 00655  67.2569 309.2099 0367195 342.4649  47.0394 13.09547359 82652"},{"CCSDS_OMM_VERS":"3.0","COMMENT":"GENERATED VIA SPACE-TRACK.ORG API","CREATION_DATE":"2026-05-16T10:38:26","ORIGINATOR":"18 SPCS","OBJECT_NAME":"THOR ABLESTAR DEB","OBJECT_ID":"1961-015HH","CENTER_NAME":"EARTH","REF_FRAME":"TEME","TIME_SYSTEM":"UTC","MEAN_ELEMENT_THEORY":"SGP4","EPOCH":"2026-05-15T10:51:18.175680","MEAN_MOTION":"12.72924465","ECCENTRICITY":"0.06529864","INCLINATION":"66.2918","RA_OF_ASC_NODE":"270.6363","ARG_OF_PERICENTER":"138.3628","MEAN_ANOMALY":"226.9052","EPHEMERIS_TYPE":"0","CLASSIFICATION_TYPE":"U","NORAD_CAT_ID":"656","ELEMENT_SET_NO":"999","REV_AT_EPOCH":"96283","BSTAR":"-0.00004314649500","MEAN_MOTION_DOT":"-0.00000079","MEAN_MOTION_DDOT":"0.0000000000000","SEMIMAJOR_AXIS":"7748.187","PERIOD":"113.125","APOAPSIS":"1875.998","PERIAPSIS":"864.106","OBJECT_TYPE":"DEBRIS","RCS_SIZE":"SMALL","COUNTRY_CODE":"US","LAUNCH_DATE":"1961-06-29","SITE":"AFETR","DECAY_DATE":null,"FILE":"5196540","GP_ID":"323424014","TLE_LINE0":"0 THOR ABLESTAR DEB","TLE_LINE1":"1 00656U 61015HH  26135.45229370 -.00000079  00000-0 -43146-4 0  9999","TLE_LINE2":"2 00656  66.2918 270.6363 0652986 138.3628 226.9052 12.72924465962831"},{"CCSDS_OMM_VERS":"3.0","COMMENT":"GENERATED VIA SPACE-TRACK.ORG API","CREATION_DATE":"2026-05-16T19:56:29","ORIGINATOR":"18 SPCS","OBJECT_NAME":"THOR ABLESTAR DEB","OBJECT_ID":"1961-015HJ","CENTER_NAME":"EARTH","REF_FRAME":"TEME","TIME_SYSTEM":"UTC","MEAN_ELEMENT_THEORY":"SGP4","EPOCH":"2026-05-16T13:37:17.572800","MEAN_MOTION":"13.11869080","ECCENTRICITY":"0.03357240","INCLINATION":"66.2483","RA_OF_ASC_NODE":"68.4132","ARG_OF_PERICENTER":"41.1791","MEAN_ANOMALY":"141.3536","EPHEMERIS_TYPE":"0","CLASSIFICATION_TYPE":"U","NORAD_CAT_ID":"657","ELEMENT_SET_NO":"999","REV_AT_EPOCH":"10047","BSTAR":"-0.00034386000000","MEAN_MOTION_DOT":"-0.00000228","MEAN_MOTION_DDOT":"0.0000000000000","SEMIMAJOR_AXIS":"7594.074","PERIOD":"109.767","APOAPSIS":"1470.891","PERIAPSIS":"960.988","OBJECT_TYPE":"DEBRIS","RCS_SIZE":"SMALL","COUNTRY_CODE":"US","LAUNCH_DATE":"1961-06-29","SITE":"AFETR","DECAY_DATE":null,"FILE":"5196761","GP_ID":"323495274","TLE_LINE0":"0 THOR ABLESTAR DEB","TLE_LINE1":"1   657U 61015HJ  26136.56756450 -.00000228  00000-0 -34386-3 0  9998","TLE_LINE2":"2   657  66.2483  68.4132 0335724  41.1791 141.3536 13.11869080100472"},{"CCSDS_OMM_VERS":"3.0","COMMENT":"GENERATED VIA SPACE-TRACK.ORG API","CREATION_DATE":"2026-05-16T10:38:26","ORIGINATOR":"18 SPCS","OBJECT_NAME":"THOR ABLESTAR DEB","OBJECT_ID":"1961-015HK","CENTER_NAME":"EARTH","REF_FRAME":"TEME","TIME_SYSTEM":"UTC","MEAN_ELEMENT_THEORY":"SGP4","EPOCH":"2026-05-16T04:19:12.592704","MEAN_MOTION":"13.41767299","ECCENTRICITY":"0.03590350","INCLINATION":"65.8631","RA_OF_ASC_NODE":"208.2068","ARG_OF_PERICENTER":"230.5785","MEAN_ANOMALY":"126.2971","EPHEMERIS_TYPE":"0","CLASSIFICATION_TYPE":"U","NORAD_CAT_ID":"658","ELEMENT_SET_NO":"999","REV_AT_EPOCH":"5530","BSTAR":"0.00119445520000","MEAN_MOTION_DOT":"0.00000904","MEAN_MOTION_DDOT":"0.0000000000000","SEMIMAJOR_AXIS":"7480.840","PERIOD":"107.321","APOAPSIS":"1371.293","PERIAPSIS":"834.117","OBJECT_TYPE":"DEBRIS","RCS_SIZE":"SMALL","COUNTRY_CODE":"US","LAUNCH_DATE":"1961-06-29","SITE":"AFETR","DECAY_DATE":null,"FILE":"5196540","GP_ID":"323424015","TLE_LINE0":"0 THOR ABLESTAR DEB","TLE_LINE1":"1 00658U 61015HK  26136.18000686  .00000904  00000-0  11945-2 0  9994","TLE_LINE2":"2 00658  65.8631 208.2068 0359035 230.5785 126.2971 13.41767299 55301"},{"CCSDS_OMM_VERS":"3.0","COMMENT":"GENERATED VIA SPACE-TRACK.ORG API","CREATION_DATE":"2026-05-16T19:56:29","ORIGINATOR":"18 SPCS","OBJECT_NAME":"THOR ABLESTAR DEB","OBJECT_ID":"1961-015HL","CENTER_NAME":"EARTH","REF_FRAME":"TEME","TIME_SYSTEM":"UTC","MEAN_ELEMENT_THEORY":"SGP4","EPOCH":"2026-05-16T12:42:53.995968","MEAN_MOTION":"12.66834190","ECCENTRICITY":"0.05907440","INCLINATION":"67.1585","RA_OF_ASC_NODE":"161.1396","ARG_OF_PERICENTER":"308.1904","MEAN_ANOMALY":"211.4820","EPHEMERIS_TYPE":"0","CLASSIFICATION_TYPE":"U","NORAD_CAT_ID":"659","ELEMENT_SET_NO":"999","REV_AT_EPOCH":"98701","BSTAR":"0.00057122000000","MEAN_MOTION_DOT":"0.00000162","MEAN_MOTION_DDOT":"0.0000000000000","SEMIMAJOR_AXIS":"7773.000","PERIOD":"113.669","APOAPSIS":"1854.050","PERIAPSIS":"935.680","OBJECT_TYPE":"DEBRIS","RCS_SIZE":"SMALL","COUNTRY_CODE":"US","LAUNCH_DATE":"1961-06-29","SITE":"AFETR","DECAY_DATE":null,"FILE":"5196761","GP_ID":"323494774","TLE_LINE0":"0 THOR ABLESTAR DEB","TLE_LINE1":"1   659U 61015HL  26136.52979162  .00000162  00000-0  57122-3 0  9991","TLE_LINE2":"2   659  67.1585 161.1396 0590744 308.1904 211.4820 12.66834190987018"},{"CCSDS_OMM_VERS":"3.0","COMMENT":"GENERATED VIA SPACE-TRACK.ORG API","CREATION_DATE":"2026-05-16T17:43:08","ORIGINATOR":"18 SPCS","OBJECT_NAME":"THOR ABLESTAR DEB","OBJECT_ID":"1961-015HM","CENTER_NAME":"EARTH","REF_FRAME":"TEME","TIME_SYSTEM":"UTC","MEAN_ELEMENT_THEORY":"SGP4","EPOCH":"2026-05-16T15:12:45.140256","MEAN_MOTION":"15.17561575","ECCENTRICITY":"0.00179279","INCLINATION":"66.4893","RA_OF_ASC_NODE":"263.1428","ARG_OF_PERICENTER":"238.7091","MEAN_ANOMALY":"138.7137","EPHEMERIS_TYPE":"0","CLASSIFICATION_TYPE":"U","NORAD_CAT_ID":"660","ELEMENT_SET_NO":"999","REV_AT_EPOCH":"38064","BSTAR":"0.00171023220000","MEAN_MOTION_DOT":"0.00034613","MEAN_MOTION_DDOT":"0.0000000000000","SEMIMAJOR_AXIS":"6891.350","PERIOD":"94.889","APOAPSIS":"525.569","PERIAPSIS":"500.860","OBJECT_TYPE":"DEBRIS","RCS_SIZE":"SMALL","COUNTRY_CODE":"US","LAUNCH_DATE":"1961-06-29","SITE":"AFETR","DECAY_DATE":null,"FILE":"5196581","GP_ID":"323457216","TLE_LINE0":"0 THOR ABLESTAR DEB","TLE_LINE1":"1 00660U 61015HM  26136.63385579  .00034613  00000-0  17102-2 0  9999","TLE_LINE2":"2 00660  66.4893 263.1428 0017928 238.7091 138.7137 15.17561575380647"}]